NORAD_CAT_ID,OBJECT_NAME,OBJECT_TYPE,EPOCH,MEAN_MOTION,ECCENTRICITY,INCLINATION,RA_OF_ASC_NODE,ARG_OF_PERICENTER,MEAN_ANOMALY,BSTAR,MEAN_MOTION_DOT,MEAN_MOTION_DDOT,TLE_LINE0,TLE_LINE1,TLE_LINE2,SEMIMAJOR_AXIS,PERIOD,APOGEE,PERIGEE,DECAYED
53544.0,STARLINK-4303,PAYLOAD,2023-01-07 00:15:27,15.08844507,0.0002144,53.2138,221.1396,52.1303,307.9883,0.00017268,2.461e-05,0.0,0 STARLINK-4303,1 53544U 22101T   23007.01073339  .00002461  00000-0  17268-3 0  9995,2 53544  53.2138 221.1396 0002144  52.1303 307.9883 15.08844507 22200,6917.866999999998,95.437,541.215,538.248,0.0
53544.0,STARLINK-4303,PAYLOAD,2023-01-07 20:55:28,15.08836397,0.0002188,53.2138,217.273,56.3729,303.7471,0.00011143,1.485e-05,0.0,0 STARLINK-4303,1 53544U 22101T   23007.87185931  .00001485  00000-0  11143-3 0  9992,2 53544  53.2138 217.2730 0002188  56.3729 303.7471 15.08836397 22333,6917.891,95.438,541.27,538.243,0.0
53544.0,STARLINK-4303,PAYLOAD,2023-01-08 00:06:14,15.08837825,0.0002203,53.214,216.6781,55.6569,304.4632,8.172e-05,1.012e-05,0.0,0 STARLINK-4303,1 53544U 22101T   23008.00433864  .00001012  00000-0  81720-4 0  9994,2 53544  53.2140 216.6781 0002203  55.6569 304.4632 15.08837825 21688,6917.887,95.438,541.276,538.2280000000002,0.0
53544.0,STARLINK-4303,PAYLOAD,2023-01-08 12:49:20,15.08838276,0.0002179,53.2151,214.2992,59.0334,301.0872,1.1473e-05,-1.06e-06,0.0,0 STARLINK-4303,1 53544U 22101T   23008.53426229 -.00000106  00000-0  11473-4 0  9991,2 53544  53.2151 214.2992 0002179  59.0334 301.0872 15.08838276 22432,6917.886,95.438,541.258,538.243,0.0
53544.0,STARLINK-4303,PAYLOAD,2023-01-08 20:46:15,15.08839145,0.0002162,53.2155,212.8124,60.5963,299.5245,7.4087e-06,-1.7e-06,0.0,0 STARLINK-4303,1 53544U 22101T   23008.86546137 -.00000170  00000-0  74087-5 0  9990,2 53544  53.2155 212.8124 0002162  60.5963 299.5245 15.08839145 22480,6917.883000000002,95.438,541.244,538.252,0.0
53544.0,STARLINK-4303,PAYLOAD,2023-01-09 07:53:58,15.08814005,0.0002013,53.2157,210.7313,66.3843,293.7361,0.00040861,6.216e-05,0.0,0 STARLINK-4303,1 53544U 22101T   23009.32914870  .00006216  00000-0  40861-3 0  9992,2 53544  53.2157 210.7313 0002013  66.3843 293.7361 15.08814005 21881,6917.96,95.439,541.217,538.432,0.0
53544.0,STARLINK-4303,PAYLOAD,2023-01-09 15:50:53,15.08836417,0.000213,53.2157,209.2444,61.3937,298.7269,7.1832e-05,8.55e-06,0.0,0 STARLINK-4303,1 53544U 22101T   23009.66034268  .00000855  00000-0  71832-4 0  9999,2 53544  53.2157 209.2444 0002130  61.3937 298.7269 15.08836417 21937,6917.891,95.438,541.23,538.283,0.0
53544.0,STARLINK-4303,PAYLOAD,2023-01-09 22:12:25,15.08840568,0.000214,53.2157,208.0549,61.5997,298.5211,7.145e-05,8.49e-06,0.0,0 STARLINK-4303,1 53544U 22101T   23009.92530044  .00000849  00000-0  71450-4 0  9990,2 53544  53.2157 208.0549 0002140  61.5997 298.5211 15.08840568 22645,6917.879,95.438,541.224,538.263,0.0
53544.0,STARLINK-4303,PAYLOAD,2023-01-10 06:09:21,15.08840169,0.0002103,53.2157,206.5681,63.9501,296.1708,7.1447e-05,8.49e-06,0.0,0 STARLINK-4303,1 53544U 22101T   23010.25650085  .00000849  00000-0  71447-4 0  9992,2 53544  53.2157 206.5681 0002103  63.9501 296.1708 15.08840169 22698,6917.88,95.438,541.2,538.29,0.0
53544.0,STARLINK-4303,PAYLOAD,2023-01-10 18:52:26,15.08841022,0.0002114,53.2157,204.189,65.2368,294.8844,0.00010154,1.328e-05,0.0,0 STARLINK-4303,1 53544U 22101T   23010.78641961  .00001328  00000-0  10154-3 0  9993,2 53544  53.2157 204.1890 0002114  65.2368 294.8844 15.08841022 22103,6917.877,95.437,541.205,538.28,0.0
53544.0,STARLINK-4303,PAYLOAD,2023-01-11 12:21:41,15.088406099999998,0.0002154,53.2155,200.9182,66.7728,293.349,7.2962e-05,8.73e-06,0.0,0 STARLINK-4303,1 53544U 22101T   23011.51506076  .00000873  00000-0  72962-4 0  9992,2 53544  53.2155 200.9182 0002154  66.7728 293.3490 15.08840610 22887,6917.879,95.438,541.234,538.253,0.0
53544.0,STARLINK-4303,PAYLOAD,2023-01-11 18:43:13,15.08842458,0.0002122,53.2156,199.7288,67.0969,293.0247,8.369100000000001e-05,1.044e-05,0.0,0 STARLINK-4303,1 53544U 22101T   23011.78001897  .00001044  00000-0  83691-4 0  9994,2 53544  53.2156 199.7288 0002122  67.0969 293.0247 15.08842458 22920,6917.873000000001,95.437,541.206,538.27,0.0
53544.0,STARLINK-4303,PAYLOAD,2023-01-12 18:34:00,15.08840933,0.0002153,53.2154,195.2688,67.7006,292.4214,3.5033e-05,2.69e-06,0.0,0 STARLINK-4303,1 53544U 22101T   23012.77362021  .00000269  00000-0  35033-4 0  9998,2 53544  53.2154 195.2688 0002153  67.7006 292.4214 15.08840933 22402,6917.8780000000015,95.437,541.232,538.253,0.0
53544.0,STARLINK-4303,PAYLOAD,2023-01-12 20:09:23,15.0884059,0.0002107,53.2158,194.9703,71.8396,288.2825,4.0883e-05,3.62e-06,0.0,0 STARLINK-4303,1 53544U 22101T   23012.83986050  .00000362  00000-0  40883-4 0  9992,2 53544  53.2158 194.9703 0002107  71.8396 288.2825 15.08840590 23082,6917.879,95.438,541.201,538.286,0.0
53544.0,STARLINK-4303,PAYLOAD,2023-01-13 21:35:33,15.08842915,0.00021,53.2157,190.2123,73.789,286.3333,6.6195e-05,7.65e-06,0.0,0 STARLINK-4303,1 53544U 22101T   23013.89969793  .00000765  00000-0  66195-4 0  9995,2 53544  53.2157 190.2123 0002100  73.7890 286.3333 15.08842915 23243,6917.871,95.437,541.189,538.284,0.0
53544.0,STARLINK-4303,PAYLOAD,2023-01-14 11:54:02,15.088367300000002,0.0002089,53.2157,187.5357,73.8637,286.2584,4.3363999999999993e-05,4.02e-06,0.0,0 STARLINK-4303,1 53544U 22101T   23014.49586284  .00000402  00000-0  43364-4 0  9993,2 53544  53.2157 187.5357 0002089  73.8637 286.2584 15.08836730 22667,6917.89,95.438,541.201,538.31,0.0
53544.0,STARLINK-4303,PAYLOAD,2023-01-15 11:44:49,15.08837603,0.0002077,53.2164,183.0751,72.1427,287.9792,-2.8123e-06,-3.33e-06,0.0,0 STARLINK-4303,1 53544U 22101T   23015.48946592 -.00000333  00000-0 -28123-5 0  9997,2 53544  53.2164 183.0751 0002077  72.1427 287.9792 15.08837603 23480,6917.888000000001,95.438,541.19,538.316,0.0
53544.0,STARLINK-4303,PAYLOAD,2023-01-15 18:06:21,15.08842431,0.0001921,53.2155,181.8877,75.3817,284.7388,5.6662e-05,6.14e-06,0.0,0 STARLINK-4303,1 53544U 22101T   23015.75442076  .00000614  00000-0  56662-4 0  9993,2 53544  53.2155 181.8877 0001921  75.3817 284.7388 15.08842431 22851,6917.8730000000005,95.437,541.067,538.409,0.0
53544.0,STARLINK-4303,PAYLOAD,2023-01-16 11:35:37,15.08836287,0.0001865999999999,53.2162,178.6167,74.4477,285.6721,2.7582e-06,-2.44e-06,0.0,0 STARLINK-4303,1 53544U 22101T   23016.48306852 -.00000244  00000-0  27582-5 0  9995,2 53544  53.2162 178.6167 0001866  74.4477 285.6721 15.08836287 22960,6917.892,95.438,541.048,538.466,0.0
53544.0,STARLINK-4303,PAYLOAD,2023-01-16 17:57:09,15.08842146,0.000184,53.2164,177.4267,78.7291,281.3907,6.18e-05,6.96e-06,0.0,0 STARLINK-4303,1 53544U 22101T   23016.74802291  .00000696  00000-0  61800-4 0  9992,2 53544  53.2164 177.4267 0001840  78.7291 281.3907 15.08842146 23672,6917.874,95.437,541.012,538.466,0.0
53544.0,STARLINK-4303,PAYLOAD,2023-01-17 09:51:01,15.08830026,0.0001896999999999,53.2167,174.4527,85.1733,274.9476,5.1474e-05,5.31e-06,0.0,0 STARLINK-4303,1 53544U 22101T   23017.41043307  .00000531  00000-0  51474-4 0  9996,2 53544  53.2167 174.4527 0001897  85.1733 274.9476 15.08830026 23107,6917.911,95.438,541.0880000000001,538.464,0.0
53544.0,STARLINK-4303,PAYLOAD,2023-01-18 03:20:15,15.08839954,0.000186,53.2184,171.1839,83.2165,276.9038,3.1162e-05,2.08e-06,0.0,0 STARLINK-4303,1 53544U 22101T   23018.13906893  .00000208  00000-0  31162-4 0  9997,2 53544  53.2184 171.1839 0001860  83.2165 276.9038 15.08839954 23211,6917.880999999999,95.438,541.0319999999999,538.4590000000001,0.0
53544.0,STARLINK-4303,PAYLOAD,2023-01-18 12:52:33,15.08851881,0.0001879,53.2163,169.3988,85.2656,274.8551,2.3566e-05,8.7e-07,0.0,0 STARLINK-4303,1 53544U 22101T   23018.53650148  .00000087  00000-0  23566-4 0  9994,2 53544  53.2163 169.3988 0001879  85.2656 274.8551 15.08851881 23275,6917.844,95.437,541.009,538.409,0.0
53544.0,STARLINK-4303,PAYLOAD,2023-01-18 16:03:19,15.08847811,0.0001646,53.2167,168.8035,86.6757,273.4423,0.00017587,2.513e-05,0.0,0 STARLINK-4303,1 53544U 22101T   23018.66898076  .00002513  00000-0  17587-3 0  9993,2 53544  53.2167 168.8035 0001646  86.6757 273.4423 15.08847811 23962,6917.857,95.437,540.86,538.5830000000001,0.0
53544.0,STARLINK-4303,PAYLOAD,2023-01-19 03:11:02,15.08842498,0.0001728,53.2187,166.7224,95.3236,264.7954,0.0001404,1.947e-05,0.0,0 STARLINK-4303,1 53544U 22101T   23019.13266434  .00001947  00000-0  14040-3 0  9994,2 53544  53.2187 166.7224 0001728  95.3236 264.7954 15.08842498 23363,6917.8730000000005,95.437,540.933,538.5419999999999,0.0
53544.0,STARLINK-4303,PAYLOAD,2023-01-19 09:32:35,15.08833018,0.0001686999999999,53.2179,165.5342,88.9567,271.1618,6.084e-06,-1.91e-06,0.0,0 STARLINK-4303,1 53544U 22101T   23019.39763528 -.00000191  00000-0  60840-5 0  9990,2 53544  53.2179 165.5342 0001687  88.9567 271.1618 15.08833018 23403,6917.901999999999,95.438,540.934,538.6,0.0
53544.0,STARLINK-4303,PAYLOAD,2023-01-20 03:01:49,15.08838819,0.0001923,53.2169,162.2629,90.1139,270.0074,6.2303e-05,7.04e-06,0.0,0 STARLINK-4303,1 53544U 22101T   23020.12627237  .00000704  00000-0  62303-4 0  9993,2 53544  53.2169 162.2629 0001923  90.1139 270.0074 15.08838819 23517,6917.884,95.438,541.0790000000001,538.419,0.0
53544.0,STARLINK-4303,PAYLOAD,2023-01-20 18:55:40,15.08857218,0.0001647,53.2163,159.2871,90.9039,269.2142,0.00021258,3.098e-05,0.0,0 STARLINK-4303,1 53544U 22101T   23020.78865950  .00003098  00000-0  21258-3 0  9993,2 53544  53.2163 159.2871 0001647  90.9039 269.2142 15.08857218 23617,6917.828,95.436,540.832,538.553,0.0
53544.0,STARLINK-4303,PAYLOAD,2023-01-21 09:14:09,15.08831549,0.0001534,53.2165,156.6132,89.1739,270.9429,6.9115e-05,8.12e-06,0.0,0 STARLINK-4303,1 53544U 22101T   23021.38483449  .00000812  00000-0  69115-4 0  9995,2 53544  53.2165 156.6132 0001534  89.1739 270.9429 15.08831549 23708,6917.906,95.438,540.832,538.71,0.0
